License Number,License Status,Business Name,DBA/Trade Name,Business Unique ID,DARP Enrollment Status,ROTOW Enrollment Status,Building Number,Street,Unit Type,Unit,City,State,ZIP Code,Borough,Community Board,Council District,Police Precinct,BIN,BBL,NTA,Census Block (2010),Census Tract (2010),Latitude,Longitude,X_Coordinate,Y_Coordinate
0966535-DCA,Active,"ARENA, ENRICO",HENRY'S SERVICE CENTER,BA-1114442-2022,Enrolled,Not Enrolled,4414,ARTHUR KILL RD,,,STATEN ISLAND,NY,10309,Staten Island,503,51,123,5086848,5073800070,SI11,1016,226,40.53456117385553,-74.2360266849952,0918642,0134120
0838740-DCA,Active,"CLOVE AUTO BODY, INC.",,BA-1226103-2022,Enrolled,Not Enrolled,240,CLOVE ROAD,,,STATEN ISLAND,NY,10310,Staten Island,501,49,120,5005499,5002050068,SI22,1002,13302,40.63439012546886,-74.12610536662436,0949249,0170427
1381292-DCA,Active,BUS MAINTENANCE CORP.,,BA-1238668-2022,Not Enrolled,Not Enrolled,9714,ATLANTIC AVE,,,OZONE PARK,NY,11416,Queens,409,32,102,4187795,4090420001,QN53,1000,32,40.68915752143808,-73.8452758335683,1027159,0190393
0971954-DCA,Active,"FRANKIE'S TOWING 77, INC.",,BA-1200536-2022,Not Enrolled,Not Enrolled,9,MAIN ST,,,FORT PLAIN,NY,13339,Outside NYC,,,,,,,,,,,,
2125501-DCWP,Active,S A G TOWING INC,,BA-1696490-2024,Not Enrolled,Not Enrolled,1711,NEPTUNE AVE,,,BROOKLYN,NY,11224,Brooklyn,313,47,060,3188424,3069940001,BK21,1022,348,40.578922904296064,-73.98540954786047,0988303,0150194
2110179-DCA,Active,CENTRALS FINEST AUTOMOTIVE INC,,BA-1587350-2023,Not Enrolled,Not Enrolled,4602,3RD AVE,,,BRONX,NY,10458,Bronx,206,15,048,2011698,2030550041,BX06,2000,387,40.85601857838611,-73.89084409272989,1014446,0251167
1312845-DCA,Active,NOR-BAY SERVICE STATION INC.,,BA-1414089-2022,Enrolled,Not Enrolled,3436,ROMBOUTS AVE,,,BRONX,NY,10475,Bronx,212,12,047,2072513,2052710054,BX13,1014,46202,40.88290497062508,-73.8291985580751,1031480,0260990
0914360-DCA,Active,BOSCAINO COLLISION & TOWING CORP,,BA-1115104-2022,Enrolled,Not Enrolled,766,ROCKAWAY PKWY,,,BROOKLYN,NY,11236,Brooklyn,317,42,067,3228505,3081220051,BK50,1000,960,40.651023728589216,-73.90898950352691,1009504,0176475
0833175-DCA,Active,J & J TOWING INC.,,BA-1325404-2022,Enrolled,Not Enrolled,141,ANDROS AVE,,,STATEN ISLAND,NY,10303,Staten Island,501,49,121,5028034,5012370100,SI12,3010,31902,40.63488525668949,-74.16244193134244,0939164,0170624
0832867-DCA,Active,TRIANGLE AUTO BODY INC.,,BA-1554754-2022,Enrolled,Enrolled,5711,79TH AVE,,,GLENDALE,NY,11385,Queens,405,30,104,4085826,4035580007,QN19,1001,565,40.694407792790024,-73.89924776624908,1012189,0192284
0832833-DCA,Active,D. MAC ARTHUR AUTO BODY LTD.,,BA-1225585-2022,Enrolled,Not Enrolled,13631,SPRINGFIELD BLVD,,,SPRNGFLD GDNS,NY,11413,Queens,413,31,105,4280067,4130180032,QN66,2014,358,40.677127410163266,-73.75528488937897,1052128,0186067
2119256-DCWP,Active,PA COLLISION CONCEPTS 1 INC,,BA-1684836-2024,Not Enrolled,Not Enrolled,5102,FOSTER AVE,,,BROOKLYN,NY,11203,Brooklyn,317,45,067,3222240,3079470031,BK91,1001,932,40.63985767070061,-73.9279683906378,1004241,0172402
2125660-DCWP,Active,770 AUTO SERVICE CENTER INC.,770 AUTO SERVICE CENTER INC,BA-1691582-2024,Not Enrolled,Not Enrolled,1757,EASTERN PKWY,,,BROOKLYN,NY,11233,Brooklyn,316,37,073,3039136,3014550006,BK79,1009,36502,40.67362545117085,-73.91051963844721,1009071,0184709
1465004-DCA,Active,ALL ABOUT AUTOMOTIVE INC,,BA-1108121-2022,Enrolled,Enrolled,14,LOMBARDY ST,,,BROOKLYN,NY,11222,Brooklyn,301,34,094,3426483,3028340018,BK90,3002,449,40.72177973295706,-73.94026845560671,1000807,0202246
0833071-DCA,Active,D MACARTHUR AUTO BODY LTD,,BA-1235838-2022,Enrolled,Not Enrolled,12319,197TH ST,,,SPRINGFIELD GARDENS,NY,11413,Queens,412,27,113,4458735,4127330093,QN08,4008,376,40.685944554318816,-73.75059035329073,1053421,0189283
2090411-DCA,Active,ROAD MASTER AUTOMOTIVE SERVICES INC,,BA-1547808-2022,Not Enrolled,Not Enrolled,3414,64TH ST,,,WOODSIDE,NY,11377,Queens,402,25,108,4027182,4011900013,QN63,1005,293,40.75173730676757,-73.89892645727346,1012254,0213171
2094116-DCA,Active,ALLSTAR AUTOMOTIVE II CORP,,BA-1108430-2022,Enrolled,Not Enrolled,3728,MERRITT AVENUE,,,BRONX,NY,10466,Bronx,212,12,047,2097426,2049520060,BX03,2011,484,40.88698640330484,-73.82924955403932,1031463,0262477
1083661-DCA,Active,ROADWAY TOWING INC,,BA-1542610-2022,Enrolled,Not Enrolled,80,GEORGIA AVE,,,BROOKLYN,NY,11207,Brooklyn,305,37,075,3083480,3036840029,BK82,1011,1198,40.674987979787566,-73.89863179034369,1012368,0185209
2017805-DCA,Active,FINEST AUTOMOTIVE RECOVERY INC,,BA-1254726-2022,Enrolled,Not Enrolled,38,RECTOR ST,,,STATEN ISLAND,NY,10310,Staten Island,501,49,120,5159572,5001940120,SI22,1004,13302,40.635840082557024,-74.12794923368874,0948738,0170956
0854287-DCA,Active,"CARRIAGE HOUSE COLLISION, INC",,BA-1248862-2022,Enrolled,Enrolled,6128,FRESH MEADOW LN,,,FLUSHING,NY,11365,Queens,408,24,107,4149065,4069010048,QN38,1003,1223,40.73759147989588,-73.7958388539768,1040828,0208067
0941455-DCA,Active,"REMCO TRANSMISSIONS, INC.",,BA-1543756-2022,Not Enrolled,Not Enrolled,774,ALABAMA AVE,,,BROOKLYN,NY,11207,Brooklyn,305,42,075,3097649,3043430010,BK82,1006,1104,40.657136154184286,-73.89282021405549,1013988,0178707
1225509-DCA,Active,HELMS BROS. INC.,,BA-1313212-2022,Not Enrolled,Not Enrolled,20824,NORTHERN BLVD,,,BAYSIDE,NY,11361,Queens,411,19,111,4156686,4073050030,QN46,1008,1447,40.75887631906947,-73.77481959169609,1046633,0215836
1314213-DCA,Active,7 DAYS TOWING INC.,,BA-1123104-2022,Enrolled,Not Enrolled,4519,BROADWAY,,,NEW YORK,NY,10040,Manhattan,112,10,034,1064478,1021800652,MN35,5000,279,40.85862724255313,-73.93164655834047,1003158,0252106
1345445-DCA,Active,"RIDGE POND AUTO REPAIR, INC.",RIDGEWOOD AUTO SPRING,BA-1548727-2022,Enrolled,Not Enrolled,6307,FRESH POND RD,,,RIDGEWOOD,NY,11385,Queens,405,30,104,4087417,4036080011,QN20,2001,61301,40.71173623883913,-73.9000872752847,1011949,0198597
1352907-DCA,Active,T.J. AUTO DOCTOR INC.,CITGO,BA-1560033-2022,Not Enrolled,Not Enrolled,3602,21ST ST,,,ASTORIA,NY,11106,Queens,401,26,114,4004274,4003490016,QN68,2000,43,40.7596939865516,-73.93698573884518,1001707,0216060
1354438-DCA,Active,EMS TOWING INC.,,BA-1207842-2022,Enrolled,Not Enrolled,15011,GUINZBERG RD,,,JAMAICA,NY,11433,Queens,412,28,103,4215661,4101100060,QN61,1002,204,40.69740230391174,-73.80195562926026,1039166,0193421
1006768-DCA,Active,JIMMY'S FIX A DENT INC.,FIX A DENT AUTO BODY,BA-1322390-2022,Enrolled,Enrolled,10,VAN ST,,,STATEN ISLAND,NY,10310,Staten Island,501,49,120,5005161,5001870141,SI22,2001,13302,40.640416096621756,-74.11989036435585,0950977,0172620
1397016-DCA,Active,A & R COLLISION EXPERTS CORP,,BA-1116262-2022,Enrolled,Not Enrolled,8625,LIBERTY AVENUE,,,OZONE PARK,NY,11417,Queens,410,32,106,4438513,4091070027,QN56,3000,54,40.67984989554329,-73.85145539644516,1025451,0186999
2086705-DCA,Active,FAST TRACK AUTO BODY AND REPAIRS INC.,,BA-1270905-2022,Not Enrolled,Not Enrolled,550,RICHMOND TER,,,STATEN ISLAND,NY,10301,Staten Island,501,49,120,5001473,5000620089,SI22,3002,81,40.645995433481886,-74.09081985748294,0959047,0174643
2089836-DCA,Active,COUNTY WIDE AUTO COLLISION INC,,BA-1274236-2022,Enrolled,Enrolled,6005,FLUSHING AVE,,,MASPETH,NY,11378,Queens,405,30,104,4060323,4026990037,QN30,2002,525,40.71918590413407,-73.90709628764378,1010003,0201309
1428104-DCA,Active,GRAY'S AUTO ENTERPRISES INC.,,BA-1317052-2022,Enrolled,Not Enrolled,1639,UTICA AVE,,,BROOKLYN,NY,11234,Brooklyn,318,45,063,3214515,3077540034,BK58,2002,722,40.63217795027293,-73.92828291673877,1004156,0169604
1433302-DCA,Active,ZACHS AUTO BODY & TOWING INC,,BA-1540303-2022,Not Enrolled,Not Enrolled,1651,UTICA AVE,,,BROOKLYN,NY,11234,Brooklyn,318,45,063,3214513,3077540028,BK58,2002,722,40.631963843370244,-73.92826153016631,1004162,0169526
1120129-DCA,Active,"FLEET AUTO ENTERPRISE, INC",,BA-1219906-2022,Not Enrolled,Not Enrolled,169,2ND AVE,,,BROOKLYN,NY,11215,Brooklyn,306,38,078,3023312,3010320006,BK37,2000,117,40.66997941727472,-73.99555885097021,0985482,0183368
1162956-DCA,Active,"ON POINT COLLISION & TOWING SERVICES, INC.",,BA-1415724-2022,Enrolled,Not Enrolled,14610,GUY R BREWER BLVD,,,JAMAICA,NY,11434,Queens,413,31,105,4285465,4133100069,QN03,3002,320,40.66304636957689,-73.76840634634014,1048502,0180927
2118057-DCWP,Active,TOW VISION INC,,BA-1595194-2023,Not Enrolled,Not Enrolled,2435,MCDONALD AVE,,,BROOKLYN,NY,11223,Brooklyn,315,44,061,3193595,3071500041,BK26,1001,386,40.59288639134462,-73.97379794632423,0991527,0155282
0833037-DCA,Active,jets towing,,BA-1283984-2022,Enrolled,Not Enrolled,918,E 51ST ST,,,BROOKLYN,NY,11203,Brooklyn,317,45,067,3106472,3047850026,BK91,1002,932,40.638757025361144,-73.92799119759786,1004235,0172001
0914305-DCA,Active,FIVE J'S AUTOMOTIVE LTD.,,BA-1242730-2022,Enrolled,Enrolled,809,ZEREGA AVE,,,BRONX,NY,10473,Bronx,209,18,043,2023213,2036960032,BX59,3014,98,40.82433876575438,-73.84297064104702,1027710,0239645
0981133-DCA,Active,"INTER-COUNTY COLLISION, INC.",,BA-1315469-2022,Enrolled,Not Enrolled,5935,FRESH MEADOW LN,,,FLUSHING,NY,11365,Queens,411,20,111,4148767,4068870020,QN48,5010,1417,40.73953118374298,-73.79691549077643,1040528,0208773
1115660-DCA,Active,"RED HOOK PERFORMANCE, INC.",,BA-1541835-2022,Enrolled,Not Enrolled,749,HICKS ST,,,BROOKLYN,NY,11231,Brooklyn,306,38,076,3347157,3005350009,BK33,2031,59,40.67725581469206,-74.00449210669773,0983004,0186019
1441329-DCA,Active,"DYNAMIC AUTO WORKS & SALES, INC.",,BA-1222218-2022,Enrolled,Not Enrolled,10841,MERRICK BOULEVARD,,,JAMAICA,NY,11433,Queens,412,27,103,4218535,4102530015,QN01,3005,414,40.69781479864015,-73.78554193325986,1043717,0193582
1361868-DCA,Active,SUDDEN IMPACT AUTO BODY & TOWING INC,,BA-1563811-2022,Enrolled,Not Enrolled,79,STORER AVE,,,STATEN ISLAND,NY,10309,Staten Island,503,51,123,5086773,5073110007,SI11,1010,226,40.5390264663618,-74.23494873083244,0918946,0135746
2114690-DCA,Active,SELF MADE TOWING LLC,SELFMADE TOWING LLC,BA-1599667-2023,Enrolled,Enrolled,9609,DITMAS AVE,,,BROOKLYN,NY,11236,Brooklyn,317,42,067,3228390,3081140001,BK96,2003,928,40.65112613874677,-73.91007411123938,1009203,0176512
2120155-DCWP,Active,EAN'S AUTOMOTIVE CORP,,BA-1684603-2024,Not Enrolled,Not Enrolled,12610,89TH AVE,,,RICHMOND HILL,NY,11418,Queens,409,29,102,4196727,4093530005,QN54,2006,14202,40.69904035515299,-73.82353151087008,1033182,0194005
1411998-DCA,Active,"MIDBRONX TOWING, LLC",,BA-1441709-2022,Enrolled,Not Enrolled,454,E 183RD ST,,,BRONX,NY,10458,Bronx,206,15,048,2129348,2030380187,BX01,4002,385,40.855524574253735,-73.89383080076765,1013620,0250986
1437956-DCA,Active,AA'S TOWING & COLLISION INC.,,BA-1112081-2022,Enrolled,Not Enrolled,79,14TH ST,,,BROOKLYN,NY,11215,Brooklyn,306,38,078,3023332,3010320060,BK37,2000,117,40.669202625513954,-73.99506865169111,0985618,0183085
2122247-DCWP,Active,XCLUSIVE TOWING & RECOVERY LLC,,BA-1682975-2024,Not Enrolled,Not Enrolled,1345,BLONDELL AVE,,,BRONX,NY,10461,Bronx,210,18,045,2044085,2040720016,BX37,2010,200,40.84193680000615,-73.84217374340089,1027919,0246057
2124598-DCWP,Active,HOOK & GO TOWING SERVICE INC.,,BA-1694581-2024,Not Enrolled,Not Enrolled,5301,2ND AVE,,,BROOKLYN,NY,11220,Brooklyn,307,38,072,3395838,3008130006,BK32,2002,20,40.6473253033972,-74.01875315944933,0979046,0175115
2114652-DCA,Active,BEN & NINO AUTO SERVICE REPAIR INC.,,BA-1689245-2024,Enrolled,Enrolled,2702,STILLWELL AVE,,,BROOKLYN,NY,11224,Brooklyn,313,47,060,3257095,3069970071,BK21,1010,348,40.581008517115734,-73.98229866922522,0989167,0150954
2021876-DCA,Active,BRIELLE AUTOMOTIVE INC,,BA-1102217-2022,Enrolled,Not Enrolled,1319,CASTLETON AVENUE,,,STATEN ISLAND,NY,10310,Staten Island,501,49,120,5000000,5002050082,SI22,1002,13302,40.633807517998534,-74.12675278383968,0949069,0170215
2121944-DCWP,Active,SPLIT SECOND AUTOCARE LTD,,BA-1694839-2024,Not Enrolled,Not Enrolled,1960,41ST ST,,,ASTORIA,NY,11105,Queens,401,22,114,4015660,4008010053,QN72,1002,12301,40.776709926155064,-73.90000423098382,1011945,0222269
2124238-DCWP,Active,NIGHT TOWING SERVICE INC,,BA-1693798-2024,Not Enrolled,Not Enrolled,547,W 133RD ST,,,NEW YORK,NY,10027,Manhattan,109,07,030,1059730,1019870009,MN06,2001,219,40.818387563664615,-73.95504869754592,0996692,0237441
1419298-DCA,Active,YELLOW BIRD AUTO CENTER INC.,,BA-1538950-2022,Enrolled,Not Enrolled,6302,16TH AVE,,,BROOKLYN,NY,11204,Brooklyn,311,43,062,3133021,3055370037,BK28,1005,250,40.62310940488601,-73.99377523016251,0985978,0166292
2054675-DCA,Active,BEN & NINO AUTOBODY CORP,,BA-1712369-2024,Enrolled,Not Enrolled,2481,MCDONALD AVE,,,BROOKLYN,NY,11223,Brooklyn,315,44,061,3329382,3071730075,BK26,1006,386,40.59149756624106,-73.97398932266024,0991474,0154776
0832966-DCA,Active,"DART TOWING, INC.",,BA-1253945-2022,Enrolled,Not Enrolled,3884,BOSTON ROAD,,,BRONX,NY,10475,Bronx,212,11,047,2130537,2050340050,BX62,2003,418,40.89748977042443,-73.8593644747814,1023130,0266289
2076617-DCA,Active,N.Y. PLE INC,,BA-1407136-2022,Enrolled,Enrolled,1841,STEINWAY ST,,,ASTORIA,NY,11105,Queens,401,22,114,4015685,4008020116,QN72,1001,12301,40.779343223467684,-73.8981190748836,1012466,0223229
2078448-DCA,Active,AA ALWAYS TOWING INC,,BA-1683842-2024,Enrolled,Enrolled,10819,MERRICK BLVD,,,JAMAICA,NY,11433,Queens,412,27,103,4218539,4102530023,QN01,3005,414,40.69812080187965,-73.78625861479364,1043518,0193693
0833080-DCA,Active,PRECISION COLLISION AUTO BODY INC.,,BA-1441862-2022,Enrolled,Enrolled,12317,101ST AVE,,,SOUTH RICHMOND HILL,NY,11419,Queens,409,29,102,4199853,4094640023,QN54,2002,154,40.690925373633306,-73.82260101250766,1033446,0191049
2097199-DCA,Active,A1 TOWING & COLLISION INC,,BA-1600017-2023,Enrolled,Not Enrolled,1204,CONEY ISLAND AVE,,,BROOKLYN,NY,11230,Brooklyn,312,45,066,3170581,3065130027,BK43,1001,456,40.628058835537836,-73.96580805944694,0993741,0168097
2104005-DCA,Active,BLUE LINE TOWING INC,,BA-1103468-2022,Not Enrolled,Not Enrolled,10518,150TH ST,,,JAMAICA,NY,11435,Queens,412,28,103,4310618,4100620027,QN61,1010,204,40.69680107726804,-73.80188528942818,1039186,0193202
1451903-DCA,Active,HOLLIS COURT COLLISION & RECOVERY INC.,,BA-1321998-2022,Enrolled,Enrolled,4719,HOLLIS COURT BOULEVARD,,,FLUSHING,NY,11358,Queens,411,20,111,4126860,4056110001,QN48,2008,1429,40.75170574477185,-73.78863121308527,1042813,0213214
2089098-DCA,Active,C & S TOWING INC,,BA-1599364-2023,Not Enrolled,Not Enrolled,5702,37TH AVE,,,WOODSIDE,NY,11377,Queens,402,26,108,4027654,4012120001,QN63,1005,257,40.750345466600564,-73.90508222062512,1010549,0212662
2112050-DCA,Active,AUTO TECH RECOVERY CORP,,BA-1578271-2023,Enrolled,Not Enrolled,1600,STILLWELL AVENUE,,,BRONX,NY,10461,Bronx,211,13,049,2047114,2042230001,BX49,1012,296,40.855110131623256,-73.8412459966022,1028167,0250857
2122244-DCWP,Active,RRS TOWING & RECOVERY CORP,,BA-1693961-2024,Not Enrolled,Not Enrolled,1631,STILLWELL AVE,,,BRONX,NY,10461,Bronx,211,13,049,2102977,2042220072,BX49,1011,296,40.85579752813458,-73.84014180956775,1028472,0251108
2125933-DCWP,Active,VERRAZANO TRANPORTS L.L.C.,,BA-1709349-2024,Not Enrolled,Not Enrolled,287,MAPLE PKWY,,,STATEN ISLAND,NY,10303,Staten Island,501,49,121,5114463,5012220006,SI12,1013,231,40.62646677804283,-74.15665026146534,0940766,0167554
1244857-DCA,Active,T-BIRDS AUTOMOTIVE LTD.,AZZURE MOTOR CARS,BA-1537476-2022,Enrolled,Not Enrolled,688,HENRY ST,,,BROOKLYN,NY,11231,Brooklyn,306,38,076,3000000,3005260025,BK33,2034,59,40.67718450511374,-74.00276159715109,0983484,0185993
2047828-DCA,Active,SHAWN TOWING INC,,BA-1560833-2022,Not Enrolled,Not Enrolled,9061,PITKIN AVE,,,OZONE PARK,NY,11417,Queens,410,32,106,4448907,4113720046,QN56,1014,58,40.672522881486984,-73.84431945147344,1027435,0184333
0832844-DCA,Active,CASINO TOWING SERVICE INC,,BA-1218001-2022,Enrolled,Enrolled,7105A,AMSTEL BLVD,,,ARVERNE,NY,11692,Queens,414,31,100,4439004,4160760001,QN12,3007,954,40.59260295965044,-73.80009524743043,1039769,0155241
0850454-DCA,Active,"MOTION TOWING, INC.",,BA-1432056-2022,Not Enrolled,Enrolled,3504,HEATHCOTE AVE,,,BRONX,NY,10475,Bronx,212,12,047,2072576,2052860036,BX13,1003,46202,40.88563991520386,-73.8245298247398,1032769,0261989
2112626-DCA,Active,DAYTONA TOWING INC,,BA-1583785-2023,Not Enrolled,Not Enrolled,1400,COMMERCE AVENUE,,,BRONX,NY,10461,Bronx,210,18,045,2027301,2038570040,BX59,2002,96,40.838469520261214,-73.84165794414488,1028064,0244794
2117141-DCWP,Active,NEW YORK #1 TOWING INC.,,BA-1667673-2023,Not Enrolled,Not Enrolled,3806,31ST ST,,,LONG ISLAND CITY,NY,11101,Queens,401,26,114,4004610,4003830014,QN68,2001,31,40.75358146620741,-73.93220190845967,1003034,0213834
0882581-DCA,Active,BIG CITY AUTO BODY & TOWING SERVICE CORP OF NY,,BA-1086272-2022,Enrolled,Not Enrolled,3724,13TH ST,,,LONG IS CITY,NY,11101,Queens,401,26,114,4004418,4003620031,QN68,2003,43,40.75874014183867,-73.93945924005088,1001022,0215712
0851351-DCA,Active,CROWN TOWING SERVICE INC.,,BA-1213663-2022,Enrolled,Enrolled,1615,MCDONALD ST,,,BRONX,NY,10461,Bronx,211,13,049,2047121,2042230101,BX49,1012,296,40.85490972892896,-73.84121755607848,1028175,0250784
1093889-DCA,Active,RICHMOND TOWING INC.,,BA-1490098-2022,Enrolled,Enrolled,10616,148TH ST,,,JAMAICA,NY,11435,Queens,412,28,103,4215052,4100600016,QN61,1016,204,40.69570854457637,-73.80182001752095,1039205,0192804
1158820-DCA,Active,"TOWTRUCK REPAIR SERVICE, INC.",,BA-1521521-2022,Enrolled,Not Enrolled,1011,E 46TH ST,,,BROOKLYN,NY,11203,Brooklyn,317,45,067,3114549,3050230055,BK91,1007,932,40.63626207848915,-73.93262735876377,1002949,0171091
1413476-DCA,Active,SUDDEN IMPACT AUTO BODY & TOWING INC,,BA-1554334-2022,Enrolled,Not Enrolled,768,RICHMOND TER,,,STATEN ISLAND,NY,10301,Staten Island,501,49,120,5165545,5000690190,SI22,1008,81,40.644669649580024,-74.09758535725527,0957169,0174162
2011544-DCA,Active,INTERNATIONAL BODY WORKS CORP,,BA-1333343-2022,Enrolled,Not Enrolled,4557,FURMAN AVE,,,BRONX,NY,10470,Bronx,212,11,047,2071143,2050840061,BX62,1003,434,40.90077883680991,-73.85134869967591,1025344,0267491
2047575-DCA,Active,Split Second Autobody LTD,,BA-1515049-2022,Enrolled,Not Enrolled,6911,JUNIPER BLVD,,,MIDDLE VLG,NY,11379,Queens,405,30,104,4068070,4029530040,QN21,2004,66501,40.71595168744576,-73.8876284951799,1015401,0200137
2101217-DCA,Active,WAYSIDE AUTO BODY INC.,,BA-1556381-2022,Not Enrolled,Not Enrolled,13923,QUEENS BLVD,,,JAMAICA,NY,11435,Queens,408,24,107,4206428,4096260075,QN35,3005,214,40.70573722780304,-73.81627860211833,1035188,0196449
2015542-DCA,Active,Emergency Tow America Corp,ETA,BA-1272119-2022,Not Enrolled,Not Enrolled,1908,PATTERSON AVE,,,BRONX,NY,10473,Bronx,209,18,043,2020498,2034740031,BX09,1004,4,40.81347671671512,-73.85682171458565,1023883,0235681
2126830-DCWP,Active,COUNTY WIDE AUTO SERVICE INC,,BA-1719093-2025,Not Enrolled,Not Enrolled,6005,FLUSHING AVE,,,MASPETH,NY,11378,Queens,405,30,104,4060323,4026990037,QN30,2002,525,40.71918590413407,-73.90709628764378,1010003,0201309
2110571-DCA,Active,High Class Collision Specialist LLC,,BA-1572088-2023,Not Enrolled,Not Enrolled,1908,PATTERSON AVE,,,BRONX,NY,10473,Bronx,209,18,043,2020498,2034740031,BX09,1004,4,40.81347671671512,-73.85682171458565,1023883,0235681
2104291-DCA,Active,NORTHSIDE AUTO II INC,,BA-1460918-2022,Enrolled,Enrolled,9061,PITKIN AVE,,,OZONE PARK,NY,11417,Queens,410,32,106,4448907,4113720046,QN56,1014,58,40.672522881486984,-73.84431945147344,1027435,0184333
2110510-DCA,Active,BROOKLYN FINEST AUTOMOTIVE CORP,,BA-1567883-2023,Not Enrolled,Not Enrolled,524,E 80TH ST,,,BROOKLYN,NY,11236,Brooklyn,318,45,069,3222499,3079580058,BK50,2001,950,40.639947230039,-73.91823602988407,1006942,0172437
0833376-DCA,Active,JOHNNY'S AUTO BODY INC.,,BA-1324336-2022,Enrolled,Not Enrolled,267,BROADWAY,,,STATEN ISLAND,NY,10310,Staten Island,501,49,120,5004879,5001770004,SI35,5008,105,40.63494294239167,-74.1172720033434,0951701,0170625
0855687-DCA,Active,ALL-TYPE TOWING CORP.,,BA-1112180-2022,Not Enrolled,Not Enrolled,4242,FRANCIS LEWIS BLVD,,,BAYSIDE,NY,11361,Queens,411,19,111,4121247,4053730026,QN48,1006,1181,40.75865490772775,-73.78389497332292,1044119,0215749
0885845-DCA,Active,CARRIAGE HOUSE RECOVERY CORP,,BA-1232046-2022,Enrolled,Not Enrolled,6134,FRESH MEADOW LN,,,FLUSHING,NY,11365,Queens,408,24,107,4149066,4069010052,QN38,1003,1223,40.73758872875365,-73.79583525391027,1040829,0208066
2047505-DCA,Active,MACARTHUR AUTOBODY & TOWING INC,,BA-1379766-2022,Not Enrolled,Not Enrolled,170,E LINCOLN AVE,,,VALLEY STREAM,NY,11580,Outside NYC,,,,,,,,,,,,
2111862-DCA,Active,ALEX'S AUTO BODY 1 INC,,BA-1567770-2023,Not Enrolled,Not Enrolled,2260,MCDONALD AVENUE,,,BROOKLYN,NY,11223,Brooklyn,311,44,062,3191426,3071030036,BK29,1001,400,40.59732733755492,-73.97319845313523,0991693,0156900
2038782-DCA,Active,LIBERTY BELL CAR CARE & TOWING INC,,BA-1327096-2022,Not Enrolled,Not Enrolled,8625,LIBERTY AVENUE,,,OZONE PARK,NY,11417,Queens,410,32,106,4438513,4091070027,QN56,3000,54,40.67984989554329,-73.85145539644516,1025451,0186999
2019310-DCA,Active,ACTION AUTO COLLISION & TOWING INC,,BA-1108066-2022,Enrolled,Not Enrolled,5873,GRAND AVE,,,MASPETH,NY,11378,Queens,405,30,104,4437547,4026800062,QN30,1008,531,40.720189512466185,-73.9093171372962,1009387,0201674
1419615-DCA,Active,BUS MAINTENANCE II LLC,,BA-1197774-2022,Not Enrolled,Not Enrolled,9714,ATLANTIC AVE,,,OZONE PARK,NY,11416,Queens,409,32,102,4187795,4090420001,QN53,1000,32,40.68915752143808,-73.8452758335683,1027159,0190393
2044974-DCA,Active,SARDAR JI TOWING INC,,BA-1536668-2022,Not Enrolled,Not Enrolled,7515,NORTHERN BLVD,,,JACKSON HEIGHTS,NY,11372,Queens,403,25,115,4026612,4011710036,QN28,1005,30903,40.75490636477251,-73.89164865279724,1014269,0214328
2112688-DCA,Active,ANTHONY AUTOBODY CORP,,BA-1108053-2022,Not Enrolled,Not Enrolled,1400,COMMERCE AVENUE,,,BRONX,NY,10461,Bronx,210,18,045,2027301,2038570040,BX59,2002,96,40.838469520261214,-73.84165794414488,1028064,0244794
2108846-DCA,Active,Bains Motor Sports Inc,,BA-1119086-2022,Enrolled,Not Enrolled,10620,157TH ST,,,JAMAICA,NY,11433,Queens,412,28,103,4215739,4101240011,QN01,5001,254,40.697507120815004,-73.79751953619612,1040396,0193462
2110707-DCA,Active,INTERNATIONAL BODY WORKS CORP,,BA-1572773-2023,Enrolled,Not Enrolled,1600,STILLWELL AVENUE,,,BRONX,NY,10461,Bronx,211,13,049,2047114,2042230001,BX49,1012,296,40.855110131623256,-73.8412459966022,1028167,0250857
2084642-DCA,Active,HAUL MASTER LLC,,BA-1276517-2022,Enrolled,Enrolled,10518,150TH ST,,,JAMAICA,NY,11435,Queens,412,28,103,4310618,4100620027,QN61,1010,204,40.69680107726804,-73.80188528942818,1039186,0193202
0832860-DCA,Active,"GENERAL AUTO BODY WORKS, INC.",,BA-1221764-2022,Enrolled,Enrolled,10757,MERRICK BLVD,,,JAMAICA,NY,11433,Queens,412,27,103,4218315,4102440217,QN01,3004,414,40.69881732991147,-73.78739239730714,1043203,0193946
0850093-DCA,Active,"BREEN BROS. TOWING, INC.",,BA-1109657-2022,Enrolled,Not Enrolled,211,VETERANS ROAD WEST,,,STATEN ISLAND,NY,10309,Staten Island,503,51,123,5086598,5070670161,SI32,1006,20801,40.55463804291614,-74.21439434563914,0924673,0141419
0945325-DCA,Active,KENBEN INDUSTRIES LTD.,,BA-1329639-2022,Not Enrolled,Not Enrolled,364,MASPETH AVE,,,BROOKLYN,NY,11211,Brooklyn,301,34,090,3338349,3029280001,BK90,4033,449,40.71859789547885,-73.92940203213513,1003820,0201089
0833013-DCA,Active,"JAMAICA TOWING, INC.",,BA-1326432-2022,Enrolled,Not Enrolled,17028,JAMAICA AVE,,,JAMAICA,NY,11432,Queens,412,27,103,4217488,4102120011,QN61,1000,444,40.707299367099836,-73.78925894468821,1042678,0197035
1065438-DCA,Active,"FINEST AUTOMOTIVE RECOVERY, INC.",,BA-1225628-2022,Enrolled,Not Enrolled,34,RECTOR ST,,,STATEN ISLAND,NY,10310,Staten Island,501,49,120,5000000,5001940064,SI22,1004,13302,40.63591968931883,-74.1279421803375,0948740,0170985
1089466-DCA,Active,"BRIGHTON ENTERPRISES, INC.",,BA-1117985-2022,Enrolled,Not Enrolled,2750,STILLWELL AVE,,,BROOKLYN,NY,11224,Brooklyn,313,47,060,3188521,3069970086,BK21,1010,348,40.58032778553114,-73.9821656500157,0989204,0150706
0885811-DCA,Active,TRIANGLE AUTOMOTIVE INC.,,BA-1555330-2022,Enrolled,Not Enrolled,5960,DECATUR STREET,,,RIDGEWOOD,NY,11385,Queens,405,34,104,4458766,4035900105,QN20,2002,557,40.6998040286251,-73.89618134675595,1013037,0194251
2022043-DCA,Active,TOWFESSIONAL AUTO REPAIR LLC,,BA-1564245-2022,Enrolled,Not Enrolled,21785,98TH AVE,,,JAMAICA,NY,11429,Queens,413,27,105,4230660,4107590186,QN34,4002,568,40.71648835511454,-73.73819299843205,1056826,0200421
0930448-DCA,Active,TONY'S AUTO SERVICE CENTER INC.,,BA-1559338-2022,Not Enrolled,Not Enrolled,15206,NORTHERN BLVD,,,FLUSHING,NY,11354,Queens,407,20,109,4119190,4052660001,QN51,2002,1155,40.76489936046076,-73.81215887265269,1036284,0218006
2106553-DCA,Active,MAX TOWING INC.,,BA-1585860-2023,,,2065,FOREST AVE,,,STATEN ISLAND,NY,10303,Staten Island,501,49,121,5027941,5012340106,SI12,1016,231,40.62627252691855,-74.15819526684038,0940337,0167484
1418653-DCA,Active,J&J TOWING AND RECOVERY INC,,BA-1320907-2022,Not Enrolled,Not Enrolled,30,GRILLE CT,,,STATEN ISLAND,NY,10309,Staten Island,503,51,123,5111438,5071200160,SI11,1004,226,40.54601711572937,-74.22834910844432,0920787,0138288
2113746-DCA,Active,787 AUTOMOTIVE LLC,,BA-1596255-2023,Enrolled,Not Enrolled,1042,LOWELL ST,,,BRONX,NY,10459,Bronx,202,17,041,2128682,2027570040,BX27,1005,12102,40.82596600280898,-73.88722229777736,1015462,0240219
1389410-DCA,Active,"MAC ARTHUR COLLISION AND TOWING, INC.",,BA-1419004-2022,Enrolled,Not Enrolled,122-60,Springfield Blvd,,,St. Albans,NY,11413,Queens,,,,,,,,,,,,
2117420-DCWP,Active,AUTOMAGIC COLLISION CENTER AND TOWING INC.,,BA-1598289-2023,Not Enrolled,Not Enrolled,572,SACKETT ST,,,BROOKLYN,NY,11217,Brooklyn,306,39,078,3336119,3004330021,BK37,2010,119,40.679365783064995,-73.98601129574304,0988130,0186788
0833060-DCA,Active,"CASINO AUTO BODY, INC",,BA-1197753-2022,Enrolled,Enrolled,354,BEACH   72 STREET,,,FAR ROCKAWAY,NY,11692,Queens,414,31,100,,,QN12,3007,954,40.59190114990839,-73.80059063376866,1039632,0154985
0855295-DCA,Active,"BRIGHTON COLLISION, INC.",,BA-1105434-2022,Enrolled,Not Enrolled,1672,MCDONALD AVE,,,BROOKLYN,NY,11230,Brooklyn,311,44,062,3173471,3065820043,BK46,3002,440,40.6120532670833,-73.97362114333511,0991574,0162265
2016804-DCA,Active,RED HOOK RECOVERY INC,,BA-1515296-2022,Enrolled,Not Enrolled,63,HUNTINGTON STREET,,,BROOKLYN,NY,11231,Brooklyn,306,38,076,3008356,3005260031,BK33,2034,59,40.67715703035829,-74.00372058366342,0983218,0185983
0882789-DCA,Active,A & J Automotive Inc,,BA-1111386-2022,Enrolled,Not Enrolled,7006,GARFIELD AVE,,,WOODSIDE,NY,11377,Queens,402,26,108,4056402,4024400016,QN50,1018,489,40.73702099668673,-73.89398715069184,1013629,0207811
0883295-DCA,Active,"DAVIDOVITZ, MICHAEL",RISHON TOWING,BA-1228222-2022,Not Enrolled,Not Enrolled,1060,MCDONALD AVENUE,,,BROOKLYN,NY,11230,Brooklyn,312,44,066,3129125,3054520039,BK88,1006,476,40.627688248128734,-73.97660507575303,0990744,0167961
2118181-DCWP,Active,AUTO PRO COLLISION SPECIALIST LLC,,BA-1677068-2023,Not Enrolled,Not Enrolled,1404,STEBBINS AVE,UNIT,,BRONX,NY,10459,Bronx,203,17,042,2010269,2029650036,BX75,1007,153,40.833506878537584,-73.89422007712707,1013522,0242964
0832942-DCA,Active,FLEET AUTO CARE CENTER INC,BRIGHTON COLLISION,BA-1227476-2022,Enrolled,Not Enrolled,1665,MCDONALD AVENUE,,,BROOKLYN,NY,11230,Brooklyn,312,44,066,3173548,3065830071,BK46,3004,440,40.6121575692528,-73.9736211021199,0991574,0162303
2122145-DCWP,Active,ProStop Auto Body & Repair Inc,,BA-1681302-2023,Not Enrolled,Not Enrolled,5466,48TH ST,,,FLUSHING,NY,11378,Queens,402,26,108,4058882,4025460066,QN31,1021,205,40.72995443337424,-73.91912142059786,1006666,0205229
0833070-DCA,Active,"BREEN BROS. TOWING, INC.",,BA-1107544-2022,Enrolled,Enrolled,566,INDUSTRIAL LOOP,,,STATEN ISLAND,NY,10309,Staten Island,503,51,123,5092982,5072060037,SI11,1002,226,40.54684189834766,-74.23042808731292,0920210,0138590
0998978-DCA,Active,"ALL MAGIC AUTOMOTIVE, INC.",,BA-1110822-2022,Not Enrolled,Not Enrolled,537,W 38TH ST,,,NEW YORK,NY,10018,Manhattan,104,03,010,1012524,1007100011,MN13,1015,117,40.7579243894853,-73.99920228100243,0984471,0215409
2103567-DCA,Active,BANDE AUTOMOTIVE LLC,,BA-1671603-2023,Enrolled,Enrolled,18526,MERRICK BLVD,,,SPRINGFIELD GARDENS,NY,11413,Queens,412,31,116,4279934,4129990196,QN08,1014,352,40.67984176799523,-73.75646830829545,1051797,0187055
1064889-DCA,Active,"BIG G'S AUTO SALES, INC.",,BA-1119851-2022,Not Enrolled,Not Enrolled,3600,BOSTON RD,,,BRONX,NY,10469,Bronx,212,12,047,2065450,2048830001,BX13,2005,46202,40.87915083311234,-73.8431594089731,1027622,0259615
0838404-DCA,Active,UNIVERSE TOWING INC.,,BA-1567043-2022,Enrolled,Not Enrolled,1825,GIVAN AVE,,,BRONX,NY,10469,Bronx,212,12,047,2061544,2047530113,BX03,2002,358,40.876439963516695,-73.83981012954732,1028550,0258629
1157741-DCA,Active,"JOHN'S TOWING, INC",,BA-1316332-2022,Not Enrolled,Not Enrolled,1120,33RD AVE,,,ASTORIA,NY,11106,Queens,401,22,114,4003752,4003170018,QN70,1002,45,40.76676671269087,-73.93611985066977,1001945,0218637
0942588-DCA,Active,L.K.J. TOWING CORP.,,BA-1354488-2022,Not Enrolled,Not Enrolled,225,UNION AVE,,,BROOKLYN,NY,11211,Brooklyn,301,34,090,3063526,3024520012,BK73,3000,527,40.70704520881329,-73.95048178475544,0997979,0196876
0950556-DCA,Active,"LINDEN'S TOWING, INC.",,BA-1314581-2022,Not Enrolled,Not Enrolled,522,VANDERBILT AVENUE,,,BROOKLYN,NY,11238,Brooklyn,302,35,078,3000000,3011210042,BK64,1000,163,40.68123949601948,-73.96759793304626,0993237,0187472
1196452-DCA,Active,BROOKLYN EXPRESS TOWING INC.,,BA-1119038-2022,Enrolled,Not Enrolled,4314,FARRAGUT RD,,,BROOKLYN,NY,11203,Brooklyn,317,45,067,3114515,3050180044,BK91,2005,836,40.637064947170316,-73.93504419589146,1002278,0171383
0915955-DCA,Active,ONE STOP 86 ST. INC.,,BA-1467348-2022,Not Enrolled,Not Enrolled,8202,7TH AVE,,,BROOKLYN,NY,11228,Brooklyn,310,47,068,3152227,3060100047,BK30,2000,140,40.62133194320924,-74.020060659928,0978681,0165645
1277702-DCA,Active,SOUTH ROAD TOWING INC.,,BA-1561774-2022,Enrolled,Not Enrolled,147-29,SOUTH ROAD,,,JAMAICA,NY,11435,Queens,412,28,103,4215054,4100600018,QN61,1016,204,40.69467677515196,-73.80197454365006,1039163,0192428
0859357-DCA,Active,"CROMWELL COLLISION & TOWING, INC.",,BA-1206595-2022,Enrolled,Enrolled,1297,INWOOD AVE,,,BRONX,NY,10452,Bronx,204,16,044,2008407,2028640001,BX26,1007,219,40.83842449931557,-73.92042068080448,1006270,0244748
0884086-DCA,Active,"TRIANGLE TOWING AND RECOVERY, INC.",,BA-1553925-2022,Enrolled,Not Enrolled,7708,CYPRESS AVENUE,,,GLENDALE,NY,11385,Queens,405,30,104,4549246,4035580003,QN19,1001,565,40.69533516633794,-73.8988388640104,1012302,0192622
1329948-DCA,Active,ALL BORO TOWING L.L.C.,,BA-1126922-2022,Enrolled,Not Enrolled,1115,E 179TH ST,,,BRONX,NY,10460,Bronx,206,15,048,2042438,2040050006,BX17,1011,220,40.84057323308049,-73.8763733776079,1018457,0245545
0959364-DCA,Active,"GOLDENBERG, GARY S",A-STAR TOWING,BA-1332222-2022,Not Enrolled,Not Enrolled,2064,JEROME AVENUE,,,BRONX,NY,10453,Bronx,205,14,046,2127653,2031790004,BX41,2000,241,40.85430347490978,-73.90688225376205,1010010,0250537
1158865-DCA,Active,ACES TOWING & COLLISION INC.,,BA-1106875-2022,Enrolled,Not Enrolled,454,FENIMORE ST,,,BROOKLYN,NY,11203,Brooklyn,309,40,071,3107314,3048150009,BK60,2002,810,40.658886707083724,-73.94718362022242,0998904,0179331
1380502-DCA,Active,"AUTORINO MOTORSPORTS, INC.",,BA-1108137-2022,Enrolled,Not Enrolled,12301,MERRICK BLVD,,,JAMAICA,NY,11434,Queens,412,27,113,4269844,4124830002,QN08,2007,368,40.683116453345235,-73.76851331562631,1048453,0188239
1129388-DCA,Active,D&M TOWING CORP,,BA-1221510-2022,Enrolled,Enrolled,855,EDGEWATER RD,,,BRONX,NY,10474,Bronx,202,17,041,2006488,2027620290,BX27,3001,11502,40.818809832123804,-73.88376604726469,1016422,0237613
1399949-DCA,Active,"HCC COLLISION, INC.",,BA-1328667-2022,Enrolled,Enrolled,19212,47TH AVE,,,FLUSHING,NY,11358,Queens,411,20,111,4126860,4056110001,QN48,2008,1429,40.75167545991009,-73.78858077953635,1042827,0213203
1406714-DCA,Active,AMAZING TOWING INC.,,BA-1106867-2022,Not Enrolled,Not Enrolled,14,CLINTON AVE,,,BROOKLYN,NY,11205,Brooklyn,302,35,088,3332259,3018720036,BK68,2000,211,40.6972557848891,-73.96963131703785,0992671,0193307
1191333-DCA,Active,USAC TOWING CORP.,,BA-1553753-2022,Enrolled,Not Enrolled,3108,NORTHERN BLVD,,,LONG ISLAND CITY,NY,11101,Queens,401,26,114,4003414,4002397502,QN31,1005,171,40.75166913787651,-73.93350679410817,1002673,0213137
1427313-DCA,Active,FULL THROTTLE AUTOMOTIVE INCORPORATED,FIX A DENT TOWING,BA-1237845-2022,Enrolled,Enrolled,70,S BRIDGE ST,,,STATEN ISLAND,NY,10309,Staten Island,503,51,123,5163857,5075840112,SI11,4027,226,40.525076104695486,-74.23685288248846,0918403,0130665
1431166-DCA,Active,TRI STATE AUTO TOWING INC.,,BA-1547763-2022,Not Enrolled,Not Enrolled,107,8TH ST,,,BROOKLYN,NY,11215,Brooklyn,306,39,078,3021769,3009960011,BK37,1000,121,40.67288046532225,-73.99217718133241,0986420,0184425
1264145-DCA,Active,ISLAND DETAILING ETC. INC.,,BA-1334431-2022,Enrolled,Not Enrolled,104,HAWKINS STREET,,,BRONX,NY,10464,Bronx,210,13,045,2082165,2056290223,BX10,2010,516,40.84623727782461,-73.78719953446519,1043126,0247656
1013015-DCA,Active,AUTORAMA ENTERPRISES INC.,,BA-1126086-2022,Enrolled,Enrolled,935,GARRISON AVENUE,,,BRONX,NY,10474,Bronx,202,17,041,2005874,2027330058,BX27,2007,93,40.81792233044897,-73.8912245104243,1014358,0237287
1474700-DCA,Active,360 COLLISION & TOWING INC.,,BA-1128839-2022,Enrolled,Not Enrolled,684,E 137TH ST,,,BRONX,NY,10454,Bronx,201,08,040,2092950,2025650008,BX39,1000,2701,40.80456125287507,-73.91428444331419,1007980,0232412
2117084-DCWP,Active,KNIGHTS COLLISION EXPERTS INC,,BA-1600300-2023,Not Enrolled,Not Enrolled,459,SHARROTTS ROAD,,,STATEN ISLAND,NY,10309,Staten Island,503,51,123,5086768,5073100066,SI11,1009,226,40.5378369710154,-74.23408829316287,0919184,0135312
2004636-DCA,Active,ALLSTAR AUTOMOTIVE CORP.,,BA-1113156-2022,Enrolled,Not Enrolled,3730,MERRITT AVE,,,BRONX,NY,10466,Bronx,212,12,047,2097426,2049520060,BX03,2011,484,40.88700562141967,-73.82925312128133,1031462,0262484
2104358-DCA,Active,ANGELA AUTO EXPERTS INC,,BA-1681389-2023,Enrolled,Enrolled,9120,182ND ST,,,HOLLIS,NY,11423,Queens,412,23,103,4211768,4098980113,QN61,2007,468,40.709600132808234,-73.77935050418488,1045423,0197880
1331368-DCA,Active,KEM AUTO CENTER INC.,,BA-1675772-2023,Enrolled,Enrolled,2732,W 15TH ST,,,BROOKLYN,NY,11224,Brooklyn,313,47,060,3426475,3069960068,BK21,1024,348,40.58069302773258,-73.98338955576142,0988864,0150839
2016364-DCA,Active,AAA NORTHEAST,,BA-1104250-2022,Not Enrolled,Not Enrolled,5870,54TH ST,,,MASPETH,NY,11378,Queens,405,30,104,4059008,4026110158,QN30,1004,535,40.71809130684603,-73.91492594261605,1007833,0200908
1363361-DCA,Active,O.Z. AUTO BODY INC.,,BA-1445843-2022,Enrolled,Not Enrolled,9825,LINDEN BLVD,,,OZONE PARK,NY,11417,Queens,410,28,106,4248254,4115010057,QN55,2003,864,40.674708593306974,-73.83701764656576,1029459,0185133
1459771-DCA,Active,SMOKIN ACES INC.,,BA-1552616-2022,Enrolled,Not Enrolled,476,FENIMORE STREET,,,BROOKLYN,NY,11203,Brooklyn,309,40,071,,,BK60,2002,810,40.65891939158118,-73.94663575111778,0999056,0179343
1467809-DCA,Active,CLIMACO AUTOBODY INC.,,BA-1225129-2022,Enrolled,Not Enrolled,14128,SPRINGFIELD BLVD,,,SPRINGFIELD GARDENS,NY,11413,Queens,412,31,113,4280848,4130570080,QN02,1009,330,40.670767463223484,-73.75644736816037,1051812,0183749
2049416-DCA,Active,NAD AUTO REPAIR CORP.,,BA-1602937-2023,Enrolled,Enrolled,17508,LIBERTY AVE,,,JAMAICA,NY,11433,Queens,412,27,103,4217960,4102320012,QN01,3002,440,40.70485798892925,-73.78412707875769,1044103,0196149
2001735-DCA,Active,FIRST IMPRESSION AUTO BODY INC,,BA-1257393-2022,Enrolled,Not Enrolled,82,GRANITE AVENUE,,,STATEN ISLAND,NY,10302,Staten Island,501,49,121,5026644,5011570031,SI12,2007,223,40.63548432605434,-74.14767120844637,0943264,0170835
1386995-DCA,Active,TOW AUTHORITY INC.,,BA-1556707-2022,Not Enrolled,Not Enrolled,412,MASPETH AVENUE,,,BROOKLYN,NY,11211,Brooklyn,301,34,090,3000000,3029280001,BK90,4033,449,40.718945685154004,-73.928117401432,1004176,0201216
1309073-DCA,Active,JAY'S TOWING INC,,BA-1282490-2022,Not Enrolled,Not Enrolled,13316,35TH AVE,,,FLUSHING,NY,11354,Queens,407,20,109,4111935,4049460165,QN22,1005,869,40.76385178461041,-73.83421841893175,1030174,0217612
2013128-DCA,Active,DYNAMIC AUTO WORKS INC,,BA-1193419-2022,Enrolled,Not Enrolled,10421,MERRICK BLVD,,,JAMAICA,NY,11433,Queens,412,27,103,4432125,4102250001,QN01,1007,440,40.701347386729054,-73.79004234520151,1042466,0194866
1418198-DCA,Active,DESTINATION AUTOMOTIVE & RECOVERY INC.,,BA-1237275-2022,Enrolled,Not Enrolled,34,COFFEY ST,,,BROOKLYN,NY,11231,Brooklyn,306,38,076,3008758,3005880033,BK33,4004,53,40.67448310060865,-74.0115470462377,0981047,0185009
1310094-DCA,Active,NEW YORK CITY TOWING INC.,,BA-1458963-2022,Enrolled,Not Enrolled,1871,PARK AVE,,,NEW YORK,NY,10035,Manhattan,111,09,025,1054501,1017750170,MN34,2001,242,40.80671448653446,-73.93781177197722,1001466,0233191
2013489-DCA,Active,CLASSIC TOWING INC,,BA-1709343-2024,Enrolled,Enrolled,7421,QUEENS BLVD,,,ELMHURST,NY,11373,Queens,404,25,110,4000000,4015290006,QN50,3003,485,40.73904500173433,-73.88934331158475,1014915,0208550
2026018-DCA,Active,CHRIS & SON TOWING INC,,BA-1218282-2022,Not Enrolled,Not Enrolled,2916,ATLANTIC AVE,,,BROOKLYN,NY,11207,Brooklyn,305,37,075,3088336,3039670015,BK82,2002,1170,40.67741411995938,-73.8866082547136,1015702,0186097
2100562-DCA,Active,AAA Northeast,,BA-1105397-2022,Not Enrolled,Not Enrolled,409,W 218TH ST,,,NEW YORK,NY,10034,Manhattan,112,10,034,1064517,1022140035,MN01,2003,299,40.87055652081954,-73.91253614909556,1008440,0256457
2030122-DCA,Active,A - 1 TOWING & AUTO REPAIR INC,,BA-1116988-2022,Not Enrolled,Not Enrolled,528,W 39TH ST,,,NEW YORK,NY,10018,Manhattan,104,03,010,1012524,1007100011,MN13,1009,117,40.75832236780668,-73.99831070261772,0984718,0215554
2104428-DCA,Active,ECC ASSET RECOVERY INC,,BA-1578254-2023,Enrolled,Not Enrolled,1040,BRONX RIVER AVE,,,BRONX,NY,10472,Bronx,209,17,043,2023324,2037090015,BX55,1004,52,40.82418868408774,-73.88297620350158,1016638,0239573
2110479-DCA,Active,"365 Automotive, Inc.",,BA-1110215-2022,Not Enrolled,Not Enrolled,3459,11TH ST,,,LONG ISLAND CITY,NY,11106,Queens,401,22,114,4003883,4003260001,QN68,1003,85,40.76360876023956,-73.9384079444341,1001312,0217486
2110708-DCA,Active,DANIYYEL TOWING INC.,,BA-1569628-2023,Enrolled,Enrolled,2127,NEPTUNE AVE,,,BROOKLYN,NY,11224,Brooklyn,313,47,060,3348087,3069910048,BK21,1020,348,40.57855547675679,-73.98875393001504,0987374,0150060
2113652-DCA,Active,ALWAYS TOWING & COLLISION LLC,,BA-1585230-2023,Not Enrolled,Not Enrolled,10823,MERRICK BLVD,,,JAMAICA,NY,11433,Queens,412,27,103,4218538,4102530021,QN01,3005,414,40.69807669816835,-73.7861577781454,1043546,0193677
2114404-DCA,Active,ALLSTAR AUTOMOTIVE IV CORP,,BA-1596135-2023,Not Enrolled,Not Enrolled,3732,MERRITT AVE,,,BRONX,NY,10466,Bronx,212,12,047,2097426,2049520060,BX03,2011,484,40.88702758421498,-73.82925668147598,1031461,0262492
2118158-DCWP,Active,EVER READY TOWING SERVICES CORP,,BA-1584736-2023,Not Enrolled,Not Enrolled,330,MCGUINNESS BLVD,,,BROOKLYN,NY,11222,Brooklyn,301,33,094,3064213,3025240004,BK76,2026,579,40.73371676082522,-73.9521975455209,0997498,0206593
2048564-DCA,Active,XTREME AUTOMOTIVE INC.,,BA-1670437-2023,Not Enrolled,Not Enrolled,3503,COLLEGE POINT BLVD,,,FLUSHING,NY,11354,Queens,407,20,109,4111884,4049450001,QN22,1006,869,40.763426024232224,-73.83590890850532,1029706,0217456
2054713-DCA,Active,DYNAMIC AUTO WORKS INC,,BA-1206457-2022,Enrolled,Not Enrolled,15716,BEAVER RD,,,JAMAICA,NY,11433,Queens,412,27,103,4438743,4101090111,QN61,2003,208,40.70087715096464,-73.80193448713634,1039169,0194687
2067714-DCA,Active,MUKTI TOWING INC,,BA-1440665-2022,Not Enrolled,Not Enrolled,7910,SPRINGFIELD BLVD,,,OAKLAND GDNS,NY,11364,Queens,411,23,111,4164475,4077800001,QN42,4003,129104,40.73711159651469,-73.7476022570331,1054196,0207927
2084096-DCA,Active,ATLANTIC AUTO SPA CORP.,,BA-1118678-2022,Enrolled,Enrolled,150,2ND AVE,,,BROOKLYN,NY,11215,Brooklyn,306,38,078,,,BK37,1015,119,40.67095926924962,-73.99476931662802,0985701,0183725
2086078-DCA,Active,"ELITE FORCE TOWING, INC.",,BA-1206062-2022,Enrolled,Enrolled,2726,W 16TH ST,,,BROOKLYN,NY,11224-2708,Brooklyn,313,47,060,3196280,3072470177,BK21,1012,348,40.58023720089616,-73.98212607436854,0989215,0150673
2119751-DCWP,Active,CONSISTENT AUTOCARE CORP.,,BA-1686099-2024,Not Enrolled,Not Enrolled,4526,WHITE PLAINS RD,,,BRONX,NY,10470,Bronx,212,11,047,2000000,2050840018,BX62,1003,434,40.90073635120053,-73.85246293823815,1025036,0267475
2120944-DCWP,Active,KNIGHTS TOWING CORP,,BA-1687335-2024,Not Enrolled,Not Enrolled,202,INDUSTRIAL LOOP,,,STATEN ISLAND,NY,10309,Staten Island,503,51,123,5151687,5072060135,SI11,1002,226,40.550370395875404,-74.23109516229619,0920028,0139876
2121506-DCWP,Active,"RODRIGUEZ LOGISTICS LADIES TOW TOO, CORP.",AUTOHOOK,BA-1693731-2024,Not Enrolled,Not Enrolled,833,MCDONALD AVE,UNIT,,BROOKLYN,NY,11218,Brooklyn,312,40,066,3127028,3053950064,BK88,1000,478,40.63390816373439,-73.97773419969319,0990430,0170227
2121624-DCWP,Active,RELIABLE TOWING LLC,,BA-1691778-2024,Not Enrolled,Not Enrolled,14815,105TH AVE,,,JAMAICA,NY,11435,Queens,412,28,103,4448844,4100610012,QN61,1003,204,40.696503292244245,-73.8026975855144,1038961,0193093
2089906-DCA,Active,"D & M AUTO REPAIRS, INC.",5 Star Auto Mall,BA-1252912-2022,Not Enrolled,Not Enrolled,1261,ZEREGA AVE,,,BRONX,NY,10462,Bronx,209,18,043,2094876,2038320037,BX59,1000,96,40.8342997316423,-73.84528521930888,1027063,0243273
2090432-DCA,Active,EMS AUTOMOTIVE I INC,,BA-1569926-2023,Enrolled,Enrolled,13038,90TH AVE,,,RICHMOND HILL,NY,11418,Queens,409,29,102,4314897,4093580023,QN54,2001,14202,40.69890662741102,-73.82047724377495,1034029,0193958
2097799-DCA,Active,MUKTI 315 PETROLEUM INC,,BA-1429141-2022,Not Enrolled,Not Enrolled,24115,HILLSIDE AVE,,,BELLEROSE,NY,11426,Queens,413,23,105,4165799,4079090001,QN43,2009,157102,40.7337252988938,-73.72514623900375,1060423,0206712
2025002-DCA,Active,FINEST AUTOMOTIVE RECOVERY INC,,BA-1219925-2022,Enrolled,Not Enrolled,326,BUTLER ST,,,BROOKLYN,NY,11217,Brooklyn,306,39,078,3006620,3004130029,BK38,2004,127,40.68030123044076,-73.98223986496191,0989176,0187129
2001990-DCA,Active,EMPIRE STATE TOWING INC,,BA-1225743-2022,Enrolled,Enrolled,1403,STORY AVE,,,BRONX,NY,10473,Bronx,209,18,043,2022553,2036460001,BX09,1015,28,40.82254148472354,-73.88261417751029,1016739,0238973
2097178-DCA,Active,EDGEWATER COLLISION INCORPORATED,,BA-1698892-2024,Enrolled,Not Enrolled,1380,E BAY AVE,,,BRONX,NY,10474,Bronx,202,17,041,2006999,2027750193,BX27,6034,93,40.80928296736947,-73.88114203731134,1017153,0234143
0832845-DCA,Active,E & L MOTORS CORP.,,BA-1236453-2022,Not Enrolled,Not Enrolled,1062,UTICA AVE,,,BROOKLYN,NY,11203,Brooklyn,317,45,067,3104300,3047340026,BK91,1000,850,40.64704470664423,-73.92988855265502,1003706,0175020
2101599-DCA,Active,TOM'S TOWING & RECOVERY INC.,,BA-1546485-2022,Not Enrolled,Not Enrolled,1515,128TH ST,,,COLLEGE POINT,NY,11356,Queens,407,19,109,4098482,4040950018,QN23,1004,947,40.7845585159076,-73.84032729326822,1028468,0225153
2118163-DCWP,Active,53 AUTOMOTIVE L.L.C,,BA-1687273-2024,Enrolled,Not Enrolled,1351,COMMONWEALTH AVE,,,BRONX,NY,10472,Bronx,209,18,043,2094914,2038740050,BX08,2000,76,40.833757913479616,-73.86874305276805,1020572,0243065
2122012-DCWP,Active,T.B.I. LLC,,BA-1695220-2024,Not Enrolled,Not Enrolled,185,MASPETH AVE,,,BROOKLYN,NY,11211,Brooklyn,301,34,094,3070219,3028960016,BK90,4042,449,40.71698760057223,-73.93558316651745,1002107,0200501
1341224-DCA,Active,SINGH TOWING INC.,,BA-1564135-2022,Not Enrolled,Not Enrolled,10120,JAMAICA AVE,,,RICHMOND HILL,NY,11418,Queens,409,29,102,4447910,4092860015,QN54,1001,28,40.69505444626254,-73.84613484684996,1026917,0192541
2123556-DCWP,Active,RITE AWAY TOWING AND RECOVERY LLC,,BA-1704021-2024,Not Enrolled,Not Enrolled,5328,35TH ST,,,LONG ISLAND CITY,NY,11101,Queens,402,26,108,4003577,4002970037,QN31,2011,199,40.735337378485546,-73.93753198605556,1001562,0207186
2124110-DCWP,Active,EVERYTHING AUTOMOTIVE LLC,,BA-1704039-2024,Not Enrolled,Not Enrolled,1777A,PACIFIC ST,,,BROOKLYN,NY,11213,Brooklyn,308,36,077,3000000,3013360062,BK61,1000,309,40.67665625090069,-73.93131031444918,1003303,0185808
2125390-DCWP,Active,INSTANT RECOVERY CORP,,BA-1712979-2024,Not Enrolled,Not Enrolled,423,BRONX PARK AVE,,,BRONX,NY,10460,Bronx,206,15,048,2127269,2040050001,BX17,1011,220,40.84043757140314,-73.87528579498486,1018758,0245496
1015604-DCA,Active,MIKE'S HEAVY DUTY TOWING INC.,,BA-1373702-2022,Not Enrolled,Not Enrolled,816,LIBERTY AVE,,,BROOKLYN,NY,11208,Brooklyn,305,37,075,3319649,3039910008,BK82,3004,1192,40.676912770670924,-73.87943835093367,1017691,0185917
2121781-DCWP,Active,QUEENS TOWING CORP,,BA-1694432-2024,Not Enrolled,Not Enrolled,88,BARKER ST,,,STATEN ISLAND,NY,10310,Staten Island,501,49,120,5005305,5001980113,SI22,2007,13302,40.63525157782389,-74.12138712163443,0950559,0170739
1261507-DCA,Active,LOUIE TOWING INC.,,BA-1302285-2022,Not Enrolled,Not Enrolled,490,3RD AVE,,,BROOKLYN,NY,11215,Brooklyn,306,38,078,3022437,3010140051,BK37,2001,121,40.670522677708156,-73.99181697205965,0986520,0183566
1274665-DCA,Active,F & S TOWING INC.,SONNY'S COLLISION SPECIALISTS,BA-1197737-2022,Not Enrolled,Not Enrolled,10612,ATLANTIC AVE,,,OZONE PARK,NY,11416,Queens,409,29,102,4197190,4093880005,QN54,1001,116,40.690971297427254,-73.8388962705619,1028927,0191057
0992248-DCA,Active,MARK'S AUTOMOTIVE INC,,BA-1470028-2022,Enrolled,Enrolled,51,GRATTAN ST,,,BROOKLYN,NY,11237,Brooklyn,301,34,090,3251793,3030030025,BK77,2004,453,40.70577261078049,-73.93103865916386,1003370,0196416
2097107-DCA,Active,CLUTCH TOWING INC,,BA-1217725-2022,Enrolled,Not Enrolled,284,JUNIUS ST,,,BROOKLYN,NY,11212,Brooklyn,316,42,073,3345669,3037630032,BK81,4001,910,40.66774236463702,-73.90249984182238,1011298,0182568
1348077-DCA,Active,PARADISE TOWING AND RECOVERY LLC,,BA-1435892-2022,Enrolled,Enrolled,1611,EAST  233 STREET,,,BRONX,NY,10466,Bronx,212,12,047,2067177,2049720007,BX03,2001,456,40.8890033362817,-73.82896950324769,1031539,0263212
2061825-DCA,Active,KENBEN INDUSTRIES LTD.,,BA-1336104-2022,Not Enrolled,Not Enrolled,1870,SHORE PKWY,,,BROOKLYN,NY,11214,Brooklyn,311,47,062,3329302,3069430162,BK26,2002,314,40.59008401628801,-73.99361988594019,0986022,0154260
0832915-DCA,Active,"GULLOTTA'S AUTO REPAIR, INC.",,BA-1308041-2022,Enrolled,Not Enrolled,2454,47TH ST,,,ASTORIA,NY,11103,Queens,401,22,114,4013579,4007320022,QN70,2004,141,40.76619940072789,-73.90542423997344,1010448,0218438
0885875-DCA,Active,BANDE AUTOMOTIVE II INC,G P TOWING,BA-1422512-2022,Enrolled,Enrolled,662,COZINE AVE,,,BROOKLYN,NY,11208,Brooklyn,305,42,075,3099070,3045640002,BK82,2000,1078,40.661928431852786,-73.86886490025562,1020632,0180462
0920090-DCA,Active,"RAZ, AVINOAM",LIGHTNING TOWING,BA-1536794-2022,Not Enrolled,Not Enrolled,2350,MCDONALD AVE,,,BROOKLYN,NY,11223,Brooklyn,315,44,061,3193436,3071460040,BK26,1011,398,40.594840630401166,-73.97354512540554,0991597,0155994
1430158-DCA,Active,SPLIT SECOND COLLISION LTD,,BA-1551097-2022,Enrolled,Not Enrolled,1856,41ST ST,,,ASTORIA,NY,11105,Queens,401,22,114,4015688,4008020165,QN72,1001,12301,40.77862369681534,-73.89766161525074,1012593,0222967
0931300-DCA,Active,"MOTION AUTOMOTIVE, INC.",,BA-1450635-2022,Enrolled,Not Enrolled,3500,HEATHCOTE AVE,,,BRONX,NY,10475,Bronx,212,12,047,2072576,2052860036,BX13,1003,46202,40.88559871199749,-73.82450823432772,1032775,0261974
1439775-DCA,Active,5 BOROUGH RECOVERY LLC,CUSTOM TOWING,BA-1128540-2022,Enrolled,Not Enrolled,84,GRANITE AVENUE,,,STATEN ISLAND,NY,10303,Staten Island,501,49,121,5026644,5011570031,SI12,2007,223,40.63546235853249,-74.14767836577356,0943262,0170827
1455396-DCA,Active,JYD TOWING LLC,,BA-1312684-2022,Enrolled,Not Enrolled,18506,MERRICK BOULEVARD,,,SPRINGFIELD GAR,NY,11413,Queens,412,31,113,4538394,4129990190,QN08,1014,352,40.679615164560026,-73.75704238860517,1051638,0186972
0978538-DCA,Active,ANT'S TOWING CORP.,,BA-1069447-2022,Not Enrolled,Not Enrolled,450,E 176TH ST,,,BRONX,NY,10457,Bronx,206,15,048,2009525,2029080020,BX01,4006,395,40.846203097404334,-73.89944796884342,1012070,0247588
2003452-DCA,Active,BLUE BLOOD TOWING CORP,,BA-1103075-2022,Enrolled,Not Enrolled,4301,94TH ST,,,ELMHURST,NY,11373,Queens,404,25,110,4039978,4016010001,QN29,2000,463,,,1020052,0210544
0991107-DCA,Active,"BRYAN'S AUTO EAST, LTD.",,BA-1259637-2022,Enrolled,Not Enrolled,8715,BEACH CHANNEL DR,,,ROCKAWAY BEACH,NY,11693,Queens,414,32,100,4303399,4161190071,QN12,2004,94202,40.59038848567362,-73.81350309025015,1036047,0154426
2009846-DCA,Active,JUSTIN'S AUTOMOTIVE EXPERTS INC,,BA-1320059-2022,Enrolled,Enrolled,9708,101ST ST,,,OZONE PARK,NY,11416,Queens,409,29,102,4197626,4094020004,QN54,1010,114,40.68694123151338,-73.84232786573683,1027978,0189587
1228220-DCA,Active,MOONLIGHT TOWING INC.,,BA-1468482-2022,Not Enrolled,Not Enrolled,558,W 44TH ST,,,NEW YORK,NY,10036,Manhattan,104,03,018,1026933,1010720059,MN15,2007,129,40.76174776720779,-73.99650210823042,0985219,0216802
2017181-DCA,Active,BROOKLYN TOWING INC,,BA-1107876-2022,Enrolled,Not Enrolled,740,CONEY ISLAND AVE,,,BROOKLYN,NY,11218,Brooklyn,312,39,066,3126328,3053780038,BK41,2001,492,40.63952468436168,-73.9688684937114,0992890,0172274
2027209-DCA,Active,FINEST AUTOMOTIVE RECOVERY INC,,BA-1225120-2022,Enrolled,Not Enrolled,576,UNION ST,,,BROOKLYN,NY,11215,Brooklyn,306,39,078,3007362,3004410011,BK37,3001,119,40.67805910715514,-73.98472449002942,0988487,0186312
1303471-DCA,Active,O.Z. AUTO BODY & TOWING INC.,,BA-1378184-2022,Enrolled,Not Enrolled,9821,LINDEN BLVD,,,OZONE PARK,NY,11417,Queens,410,28,106,4248255,4115010058,QN55,2003,864,40.674708593306974,-73.83701764656576,1029459,0185133
1334147-DCA,Active,THROOP AUTO REPAIR INC,GUIDO'S AUTO,BA-1508310-2022,Enrolled,Not Enrolled,128,THROOP AVE,,,BROOKLYN,NY,11206,Brooklyn,301,33,090,3256289,3022740013,BK75,1013,507,40.70087787542431,-73.94478809544147,0999559,0194630
1361360-DCA,Active,JUSTICE RECOVERY INC.,,BA-1330677-2022,Enrolled,Not Enrolled,10517,101ST AVE,,,OZONE PARK,NY,11416,Queens,409,29,102,4197811,4094070029,QN54,2003,116,40.68657006612138,-73.83792975075542,1029198,0189454
1366904-DCA,Active,NEW GENERATION TOWING INC.,,BA-1439701-2022,Enrolled,Not Enrolled,310,BROADWAY,,,STATEN ISLAND,NY,10310,Staten Island,501,49,120,5005534,5002070062,SI22,3001,13302,40.63374644732166,-74.11704291964064,0951764,0170189
2045899-DCA,Active,FIVE J'S AUTOMOTIVE LTD.,,BA-1237800-2022,Not Enrolled,Not Enrolled,10,FRANCES KIERNAN PL,,,CARMEL,NY,10512,Outside NYC,,,,,,,,,,,,
1423277-DCA,Active,"MIDBRONX AUTOMOTIVE, LLC",,BA-1431505-2022,Not Enrolled,Not Enrolled,3112,JEROME AVE,,,BRONX,NY,10468,Bronx,207,14,052,2017631,2033210035,BX05,3001,411,40.874905524236155,-73.88867606527992,1015037,0258049
1426317-DCA,Active,"JAEWOONG LEE, INC",NEW SAM SUNG TOWING,BA-1314111-2022,Not Enrolled,Not Enrolled,3125,COLLEGE POINT BLVD,,,FLUSHING,NY,11354,Queens,407,19,109,4100758,4043850024,QN23,1033,907,40.76844206673355,-73.84081359350667,1028344,0219281
1435372-DCA,Active,QUEENS VILLAGE TOWING INC.,,BA-1396625-2022,Enrolled,Enrolled,18510,MERRICK BLVD,,,SPRINGFIELD GARDENS,NY,11413,Queens,412,31,116,4538395,4129990193,QN08,1014,352,40.679661581858504,-73.75692684778592,1051670,0186989
1470729-DCA,Active,"MIDBRONX TOWING, LLC",,BA-1398882-2022,Enrolled,Not Enrolled,3701,PROVOST AVENUE,,,BRONX,NY,10466,Bronx,212,12,047,2066528,2049520017,BX03,2002,484,40.888003516080154,-73.8284621267508,1031680,0262848
2004154-DCA,Active,BLACK & YELLOW AUTO CENTER LLC,,BA-1110674-2022,Not Enrolled,Not Enrolled,1680,JEROME AVENUE,,,BRONX,NY,10453,Bronx,205,14,046,2008154,2028480012,BX41,3003,22701,40.84631865959277,-73.91332703954058,1008230,0247626
2012876-DCA,Active,CASINO GARAGE INC.,,BA-1170786-2022,Enrolled,Not Enrolled,7505,BEACH CHANNEL DR,,,ARVERNE,NY,11692,Queens,414,31,100,4303327,4160900020,QN12,1017,94202,40.59061865684696,-73.80338849329502,1038856,0154516
2028247-DCA,Active,SPRAY CITY COLLISION INC,,BA-1545235-2022,Enrolled,Not Enrolled,1316,CASTLETON AVENUE,,,STATEN ISLAND,NY,10310,Staten Island,501,49,120,5005722,5002150029,SI22,3008,13302,40.633788260808544,-74.12679237891656,0949058,0170208
2067474-DCA,Active,"STREET SCIENCE AUTOMOTIVE, INC.",,BA-1539149-2022,Not Enrolled,Not Enrolled,872,E 149TH ST,,,BRONX,NY,10455,Bronx,201,08,040,2004101,2026000202,BX39,1008,31,40.81131838311834,-73.90338770822368,1010994,0234877
2075873-DCA,Active,MAESTRO AUTOMOTIVE INC,,BA-1422188-2022,Not Enrolled,Not Enrolled,1353,PARK AVE,,,NEW YORK,NY,10029,Manhattan,111,08,023,1051863,1016290072,MN33,4001,166,40.79027393015012,-73.94982400987557,0998144,0227199
2028454-DCA,Active,BEN & NINO AUTOBODY CORP,,BA-1104793-2022,Enrolled,Enrolled,2302,MCDONALD AVE,,,BROOKLYN,NY,11223,Brooklyn,315,44,061,3000000,3071230041,BK26,1003,398,40.59607300665889,-73.97337899855364,0991643,0156443
2033256-DCA,Active,EPIC TOWING INC,,BA-1193581-2022,Not Enrolled,Not Enrolled,3535,STEINWAY ST,,,LONG IS CITY,NY,11101,Queens,401,26,114,4010879,4006690008,QN70,1004,157,40.75452784423142,-73.92260353624287,1005693,0214181
2082053-DCA,Active,TIMMY'S AUTOMOTIVE CORP,,BA-1530638-2022,Enrolled,Enrolled,334,E 126TH ST,,,NEW YORK,NY,10035,Manhattan,111,08,025,1054789,1018020032,MN34,3005,242,40.803008644483754,-73.93212628063864,1003041,0231842
2083444-DCA,Active,LEGACY TOWING INC.,,BA-1306439-2022,Not Enrolled,Not Enrolled,20106,HILLSIDE AVE,,,JAMAICA,NY,11423,Queens,412,23,103,,,QN06,3003,478,40.719716925321514,-73.76257806558188,1050063,0201578
2083613-DCA,Active,J&J PRESTIGE AUTO COLLISION & REPAIR INC.,,BA-1336093-2022,Enrolled,Not Enrolled,2321,BATHGATE AVE,,,BRONX,NY,10458,Bronx,206,15,048,2120552,2030530051,BX01,3001,385,40.855280578683626,-73.89118871700005,1014351,0250898
2043586-DCA,Active,OZ TOWING & RECOVERY INC,,BA-1453525-2022,Not Enrolled,Not Enrolled,9820,LINDEN BLVD,,,OZONE PARK,NY,11417,Queens,410,28,106,4248591,4115190074,QN55,1000,864,40.674727627887975,-73.8368914218421,1029494,0185140
2084955-DCA,Active,FIVE J'S AUTO WORKS INC,,BA-1232200-2022,Not Enrolled,Not Enrolled,5914,BEACH CHANNEL DR,,,ARVERNE,NY,11692,Queens,414,31,100,4302403,4160110105,QN12,1020,964,40.59395353556514,-73.7894114260436,1042735,0155740
2046773-DCA,Active,BOSTON ROAD GARAGE CORP,,BA-1123299-2022,Enrolled,Not Enrolled,2929,BOSTON RD,,,BRONX,NY,10469,Bronx,211,12,049,2120886,2045540013,BX31,2000,342,40.86826651539469,-73.85893455983118,1023266,0255642
2047571-DCA,Active,TOWORKS INC,,BA-1515895-2022,Not Enrolled,Not Enrolled,75,BRIDGEWATER ST,,,BROOKLYN,NY,11222,Brooklyn,301,33,094,3331524,3026620030,BK76,1002,593,40.727877129064915,-73.93752454745817,1001566,0204468
2053034-DCA,Active,SNOOPY'S TOWING SERVICE INC,,BA-1525983-2022,Not Enrolled,Not Enrolled,222,INDIA STREET,,,BROOKLYN,NY,11222,Brooklyn,301,33,094,3064515,3025420017,BK76,2024,579,40.73267865424048,-73.950798300405,0997886,0206215
2067393-DCA,Active,ALL PRO AUTOBODY INC.,,BA-1127543-2022,Enrolled,Not Enrolled,3475,FORT HAMILTON PARKWAY,,,BROOKLYN,NY,11218,Brooklyn,312,39,066,3123397,3053020032,BK41,3000,498,40.64537995753,-73.98624183801057,0988068,0174406
2067407-DCA,Active,NYCA LLC,,BA-1418011-2022,Enrolled,Not Enrolled,10115,ROCKAWAY BLVD,,,OZONE PARK,NY,11417,Queens,410,28,106,4201988,4095220031,QN55,1004,94,40.679804777345076,-73.8383463879083,1029087,0186989
2076600-DCA,Active,"PACHECO EMPIRE GROUP, INC",PRECISION AUTO COLLISION,BA-1436285-2022,Enrolled,Not Enrolled,3716,22 STREET,,,LONG IS CITY,NY,11101,Queens,401,26,114,4004425,4003640035,QN68,4007,33,40.75792380425526,-73.93731227650946,1001617,0215415
2079570-DCA,Active,PHANTOM AUTO COLLISION INC.,,BA-1443943-2022,Not Enrolled,Not Enrolled,18122,93RD AVE,,,JAMAICA,NY,11423,Queens,,,,,,,,,,,,
2083985-DCA,Active,D&S TOWING INC,,BA-1212614-2022,Not Enrolled,Not Enrolled,660,OLD COUNTRY RD,,,WESTBURY,NY,11590,Outside NYC,,,,,,,,,,,,
2087459-DCA,Active,VMA AUTOMOTIVE LLC,,BA-1518513-2022,Not Enrolled,Not Enrolled,5425,FLUSHING AVE,,,MASPETH,NY,11378,Queens,405,30,104,4059053,4026290041,QN30,1006,535,40.71539708401467,-73.91277222394281,1008431,0199927
2092574-DCA,Active,ON SITE AUTOMOTIVE INC.,,BA-1406550-2022,Enrolled,Not Enrolled,4522,PARK AVE,,,BRONX,NY,10457,Bronx,206,15,048,2011333,2030380011,BX01,4002,385,40.855338940743394,-73.89493001986884,1013316,0250918
2107530-DCA,Active,FIRST CHOICE TOWING INC.,,BA-1223197-2022,Not Enrolled,Not Enrolled,2351,MCDONALD AVE,,,BROOKLYN,NY,11223,Brooklyn,315,44,061,3193450,3071470013,BK26,1010,398,40.59481317826876,-73.97352713242672,0991602,0155984
2108097-DCA,Active,DAY N NITE TOWING INC,,BA-1680950-2023,Not Enrolled,Not Enrolled,21525,99TH AVE,,,QUEENS VILLAGE,NY,11429,Queens,413,27,105,4238786,4110830120,QN34,2000,540,40.71455218690966,-73.74380267082242,1055273,0199711
2052440-DCA,Active,"GRAND AUTO REPAIR SERVICES, INC.",,BA-1336536-2022,Enrolled,Not Enrolled,475,SENECA AVENUE,,,RIDGEWOOD,NY,11385,Queens,405,34,104,4437706,4034310012,QN20,2001,545,40.70581784836146,-73.91275951111182,1008438,0196437
2094845-DCA,Active,"PLAZA BODY SHOP, INC",,BA-1450183-2022,Enrolled,Enrolled,2700,NOSTRAND AVE,,,BROOKLYN,NY,11210,Brooklyn,314,45,070,3210332,3076650058,BK58,2006,746,40.618597864388626,-73.94533882880329,0999425,0164653
2110741-DCA,Active,Clutch Towing Inc,,BA-1669484-2023,Enrolled,Enrolled,504,REMSEN AVE,,,BROOKLYN,NY,11236,Brooklyn,317,41,067,3102448,3046850011,BK96,2000,864,40.65393126547588,-73.92124622027247,1006102,0177531
2100306-DCA,Active,Collision Pros Inc,,BA-1198790-2022,Enrolled,Enrolled,5714,58TH ST,,,MASPETH,NY,11378,Queens,405,30,104,4458082,4026700045,QN30,3013,531,40.72265644231199,-73.91207004803917,1008623,0202572
2102767-DCA,Active,CBC AUTOMOTIVE CORP,,BA-1267528-2022,Enrolled,Not Enrolled,1456,BRUCKNER BLVD,,,BRONX,NY,10473,Bronx,209,18,043,2022558,2036480035,BX09,1017,28,40.82307227776861,-73.88097288224128,1017193,0239167
2112672-DCA,Active,BILLY'S TOWING INC,,BA-1699225-2024,Enrolled,Not Enrolled,746,E 98TH ST,,,BROOKLYN,NY,11236,Brooklyn,317,42,067,3228510,3081230047,BK82,2009,1098,40.65190705875256,-73.90837203946496,1009675,0176797
2093017-DCA,Active,N.Y. CONFIDENTIAL TOWING INC,N.Y. CONFIDENTIAL TOWING,BA-1450140-2022,Enrolled,Enrolled,773,BERGEN ST,,,BROOKLYN,NY,11238,Brooklyn,308,35,077,3027975,3011400044,BK64,1004,203,40.67828465248867,-73.96275026982661,0994582,0186396
2116226-DCWP,Active,TOP TIER AUTOMOTIVE INC,,BA-1664946-2023,Not Enrolled,Not Enrolled,8613,DITMAS AVE,,,BROOKLYN,NY,11236,Brooklyn,317,42,067,3221791,3079110001,BK96,2002,934,40.64648461426676,-73.91726226431632,1007210,0174819
2048713-DCA,Active,ACES AUTO BODY & TOWING INC,,BA-1046675-2022,Not Enrolled,Not Enrolled,6417,NEW UTRECHT AVE,,,BROOKLYN,NY,11219,Brooklyn,311,43,062,3142113,3057480049,BK28,2000,250,40.624298041405055,-73.99753598472716,0984934,0166725
2110861-DCA,Active,J&J PRESTIGE AUTO COLLISION & REPAIR INC.,,BA-1573100-2023,Enrolled,Not Enrolled,452,EAST  183 STREET,,,BRONX,NY,10458,Bronx,206,15,048,2000000,2030380087,BX01,4002,385,40.855541079036435,-73.89387053819584,1013609,0250992
2119224-DCWP,Active,BROOKLYN NORTH AUTO CORP,,BA-1667287-2023,Not Enrolled,Not Enrolled,1775,PACIFIC ST,,,BROOKLYN,NY,11213,Brooklyn,308,36,077,3000000,3013360064,BK61,1000,309,40.67665903009688,-73.93136799464132,1003287,0185809
2119255-DCWP,Active,PREMIER COLLISION SPECIALIST LLC,,BA-1666827-2023,Not Enrolled,Not Enrolled,1794,E 49TH ST,,,BROOKLYN,NY,11234,Brooklyn,318,46,063,3220947,3078930077,BK58,1005,672,40.617245931945554,-73.9277190405206,1004317,0164164
2103203-DCA,Active,"GREGORY'S AUTO REPAIR, LLC",,BA-1326160-2022,Enrolled,Not Enrolled,1551,63RD ST,,,BROOKLYN,NY,11219,Brooklyn,311,43,062,3132695,3055300025,BK28,1002,250,40.623825845645115,-73.99478741977023,0985697,0166553
2121938-DCWP,Active,LIC Motor Group LLC,Northstar Mitsubishi,BA-1290980-2022,Not Enrolled,Not Enrolled,4105,34TH AVE,,,LONG ISLAND CITY,NY,11101,Queens,401,22,114,4011035,4006770001,QN70,1000,159,40.75624147138224,-73.919912468776,1006438,0214806
2111005-DCA,Active,Kove Autobody Inc,,BA-1572598-2023,Not Enrolled,Not Enrolled,109,27 AVENUE,,,ASTORIA,NY,11102,Queens,401,22,114,4020700,4009150038,QN71,2003,87,40.77554979548956,-73.9359670034173,1001985,0221837
2124386-DCWP,Active,D & E TOWING INC.,,BA-1707550-2024,Not Enrolled,Not Enrolled,90,SHEFFIELD AVE,,,BROOKLYN,NY,11207,Brooklyn,305,37,075,3083482,3036850012,BK82,1010,1198,40.67515186215814,-73.89772305334039,1012620,0185269
2114814-DCA,Active,ON MY WAY ROADSIDE CORP,,BA-1585691-2023,Not Enrolled,Not Enrolled,1894,EASTCHESTER ROAD,,,BRONX,NY,10461,Bronx,211,13,049,2046947,2042090018,BX49,1016,296,40.851633611870945,-73.84400867991776,1027405,0249589
1434803-DCA,Active,HENRY J'S TOWING INC.,,BA-1359690-2022,Enrolled,Not Enrolled,60,WINANT PL,,,STATEN ISLAND,NY,10309,Staten Island,503,51,123,5086884,5074080025,SI11,1011,226,40.53672252865896,-74.23943410142121,0917697,0134910
2103559-DCA,Active,BET AUTOMOTIVE LLC,,BA-1117945-2022,Enrolled,Not Enrolled,812,REMSEN AVE,,,BROOKLYN,NY,11236,Brooklyn,317,42,067,3221994,3079240182,BK50,1012,960,40.647846722679894,-73.91446055111561,1007987,0175316
2106678-DCA,Active,BISMILLAH TOWING INC,,BA-1103659-2022,Not Enrolled,Not Enrolled,266,42ND ST,,,BROOKLYN,NY,11232,Brooklyn,307,38,072,3010795,3007220031,BK32,1008,2,40.652750005302764,-74.01091620646176,0981221,0177091
2108935-DCA,Active,DOLPHIN TRANSMISSIONS INC,,BA-1201457-2022,Not Enrolled,Not Enrolled,8501,FLATLANDS AVE,,,BROOKLYN,NY,11236,Brooklyn,318,46,069,3224527,3080060007,BK50,2006,958,40.63795073039665,-73.90951897350581,1009362,0171712
2112991-DCA,Active,"EASTERN ROADSIDE SERVICE, INC",,BA-1583616-2023,Enrolled,Not Enrolled,501,HUNTS POINT AVE,,,BRONX,NY,10474,Bronx,202,17,041,2006863,2027690186,BX27,6016,93,40.81102422095133,-73.88221183168825,1016856,0234777
2103360-DCA,Active,sky automotive corp,,BA-1548023-2022,Enrolled,Not Enrolled,456,E 183RD ST,,,BRONX,NY,10458,Bronx,206,15,048,2000000,2030380020,BX01,4002,385,40.85550806612939,-73.89378744847774,1013632,0250980
1277334-DCA,Active,JMX TOWING INC,,BA-1324344-2022,Not Enrolled,Not Enrolled,12406,ROCKAWAY BLVD,,,SOUTH OZONE PARK,NY,11420,Queens,410,28,106,4254664,4117460041,QN55,1003,840,40.67541916840703,-73.81332299587805,1036031,0185405
2109093-DCA,Active,54TH STREET AUTO CENTER INC.,,BA-1102820-2022,Enrolled,Not Enrolled,415,W 54TH ST,,,NEW YORK,NY,10019,Manhattan,104,03,018,1026792,1010640022,MN15,3001,139,40.76629795958129,-73.9878269381703,0987622,0218460
1412322-DCA,Active,CROSS COUNTY COLLISION & TOWING INC.,,BA-1259044-2022,Enrolled,Not Enrolled,5933,FRESH MEADOW LN,,,FLUSHING,NY,11365,Queens,411,20,111,4148767,4068870020,QN48,5010,1417,40.739555905532036,-73.7969262412316,1040525,0208782
2098409-DCA,Active,IDS AUTO REPAIR INC,,BA-1363674-2022,Not Enrolled,Not Enrolled,2502,HARWAY AVE,,,BROOKLYN,NY,11214,Brooklyn,311,47,062,3000000,3069070012,BK29,3003,304,40.59266131009626,-73.99241702098571,0986356,0155199
2117706-DCWP,Active,CLUTCH TOWING INC,,BA-1721340-2025,Enrolled,Enrolled,925,DEAN ST,,,BROOKLYN,NY,11238,Brooklyn,308,35,077,3000000,3011330062,BK61,1003,305,40.678470273007356,-73.95971090830092,0995425,0186464
1457231-DCA,Active,BEN & NINO AUTO REPAIR INC.,,BA-1103959-2022,Enrolled,Enrolled,2603,STILLWELL AVE,,,BROOKLYN,NY,11223,Brooklyn,313,47,060,3329395,3072250090,BK26,1003,308,40.584368247243226,-73.98290981403754,0988997,0152178
2042652-DCA,Active,I-TOW TOWING INC.,,BA-1369417-2022,Enrolled,Enrolled,5901,2ND AVE,,,BROOKLYN,NY,11220,Brooklyn,307,38,072,3337337,3008610001,BK32,2006,22,40.643956830140496,-74.02224753299684,0978076,0173888
1413887-DCA,Active,"KNIGHTS COLLISION EXPERTS, INC.",,BA-1312869-2022,Enrolled,Enrolled,2000,EASTERN PKWY,,,BROOKLYN,NY,11233,Brooklyn,316,37,073,3041998,3015400072,BK79,2000,367,40.679572569700056,-73.90605905241168,1010306,0186877
1201170-DCA,Active,"A & R AUTO TOWING, INC.",,BA-1107359-2022,Not Enrolled,Not Enrolled,7523,18 AVENUE,,,BROOKLYN,NY,11214,Brooklyn,311,47,062,3329032,3062270001,BK28,2001,274,40.61299770082522,-73.99636583253161,0985259,0162608
2119455-DCWP,Active,CLUTCH TOWING INC,,BA-1584725-2023,Not Enrolled,Not Enrolled,8914,FOSTER AVE,,,BROOKLYN,NY,11236,Brooklyn,318,42,069,3223054,3079680041,BK50,1007,962,40.64459217955787,-73.91184861223871,1008713,0174131
2118275-DCWP,Active,ALBERT FIVE STAR TOWING SERVICE CORP,,BA-1675316-2023,Enrolled,Not Enrolled,1115,CYPRESS AVE,,,RIDGEWOOD,NY,11385,Queens,405,34,104,4549271,4035680010,QN20,2008,557,40.695961595250154,-73.89954834201204,1012105,0192850
0895619-DCA,Active,"A & A MOTORS AND TOWING, INC.",,BA-1120405-2022,Enrolled,Not Enrolled,12322,MERRICK BLVD,,,JAMAICA,NY,11434,Queens,412,27,113,4270076,4125160080,QN08,1000,33401,40.68283550732438,-73.768027543483,1048588,0188137
1384669-DCA,Active,BEAR TRANSPORTATION LLC,,BA-1120307-2022,Enrolled,Enrolled,953,COLGATE AVE,,,BRONX,NY,10473,Bronx,209,18,043,2127183,2036480019,BX09,1017,28,40.82224294440356,-73.88055886141574,1017308,0238865
2122937-DCWP,Active,110 AUTO BODY REPAIR INC,,BA-1099660-2022,Not Enrolled,Not Enrolled,11011,SUTPHIN BLVD,,,JAMAICA,NY,11435,Queens,412,28,113,4263383,4121530009,QN01,1011,262,40.689605681305146,-73.79640046026613,1040713,0190584
2094045-DCA,Active,D & T AUTOMOTIVE INC,,BA-1219531-2022,Enrolled,Not Enrolled,13935,QUEENS BLVD,,,JAMAICA,NY,11435,Queens,408,24,107,4206414,4096260017,QN35,3005,214,40.705558628481995,-73.81616007123813,1035221,0196384
0832943-DCA,Active,METRO AUTO BODY INC.,,BA-1467635-2022,Enrolled,Not Enrolled,9614,NORTHERN BLVD,,,CORONA,NY,11368,Queens,403,21,115,4437203,4017110005,QN26,1000,375,40.75695848671491,-73.87199498345052,1019713,0215083
0890594-DCA,Active,"QUALITY AUTOMOTIVE SERVICES, INC.",,BA-1431255-2022,Enrolled,Enrolled,12228,FARMERS BOULEVARD,,,SPRINGFIELD GARDENS,NY,11413,Queens,412,27,116,4269113,4124580128,QN08,1016,366,40.682628310922716,-73.76067299208044,1050628,0188067
2037882-DCA,Active,MACHINE TOWING INC,,BA-1461923-2022,Enrolled,Enrolled,18609,MERRICK BLVD,,,JAMAICA,NY,11413,Queens,412,27,116,4000000,4127170084,QN08,1003,352,40.68009844620275,-73.75584003314084,1051971,0187149
2072637-DCA,Active,TOWING AND GOING INC.,,BA-1545231-2022,Not Enrolled,Not Enrolled,3,TIOGA BLVD,STE,1,APALACHIN,NY,13732,Outside NYC,,,,,,,,,,,,
2101671-DCA,Active,SPARK PLUG AUTOMOTIVE INC,,BA-1575601-2023,Enrolled,Not Enrolled,4343,3RD AVE,,,BRONX,NY,10457,Bronx,206,15,048,2088344,2030450044,BX01,2003,395,40.84991228445603,-73.89451930030609,1013432,0248941
0832835-DCA,Active,SCUFFY'S COLLISION INC.,PRO BODIES.,BA-1539279-2022,Enrolled,Not Enrolled,7011,GARFIELD AVE,,,WOODSIDE,NY,11377,Queens,402,26,108,4056364,4024360066,QN50,1014,489,40.73704293808205,-73.89396907348355,1013634,0207819
2119306-DCWP,Active,FRONTLINE AUTOMOTIVE CORP,,BA-1682217-2024,Not Enrolled,Not Enrolled,1918,EASTERN PKWY,,,BROOKLYN,NY,11233,Brooklyn,316,37,073,3042275,3015530001,BK79,1004,367,40.6777158541361,-73.90791116053566,1009793,0186200
1348334-DCA,Active,PAWAR BROS CORP.,,BA-1458857-2022,Enrolled,Not Enrolled,7435,GRAND AVE,,,ELMHURST,NY,11373,Queens,405,30,104,4058130,4024920078,QN29,1004,499,40.730292580704955,-73.8871388676855,1015530,0205362
2125351-DCWP,Active,"MING TOWING, INC.",,BA-1712456-2024,Not Enrolled,Not Enrolled,1127,61ST ST,,,BROOKLYN,NY,11219,Brooklyn,312,44,066,3141257,3057170068,BK88,1002,214,40.63048753423484,-74.00281010257231,0983470,0168980
